{
  "norad_id": 40025,
  "name": "QB50P1",
  "history": [
    {
      "epoch": "2026-03-28T20:12:51.809184Z",
      "apogee_km": 522.2775742419362,
      "perigee_km": 508.12541244832937,
      "latitude_deg": -4.5459176102999994e-05,
      "longitude_deg": -36.04707662682584,
      "height_km": 523.1100276279549,
      "semi_major_axis_km": 6893.3384933451325,
      "eccentricity": 0.00102651,
      "inclination_deg": 98.1001,
      "raan_deg": 93.4257,
      "arg_perigee_deg": 133.3453,
      "mean_anomaly_deg": 226.8635,
      "mean_motion_rev_day": 15.16904902
    }
  ]
}